[{"OBJECT_NAME":"OBJECT A","OBJECT_ID":"2024-203A","EPOCH":"2026-03-09T23:31:20.812800","MEAN_MOTION":15.27300571,"ECCENTRICITY":0.00108989,"INCLINATION":97.4288,"RA_OF_ASC_NODE":139.5608,"ARG_OF_PERICENTER":322.6893,"MEAN_ANOMALY":37.3588,"EPHEMERIS_TYPE":0,"CLASSIFICATION_TYPE":"U","NORAD_CAT_ID":61869,"ELEMENT_SET_NO":999,"REV_AT_EPOCH":7380,"BSTAR":0.00061472876,"MEAN_MOTION_DOT":0.00016411,"MEAN_MOTION_DDOT":0},{"OBJECT_NAME":"STARLINK-35093","OBJECT_ID":"2025-195W","EPOCH":"2026-03-09T19:24:36.512352","MEAN_MOTION":15.30149473,"ECCENTRICITY":0.00010789,"INCLINATION":53.1575,"RA_OF_ASC_NODE":257.4995,"ARG_OF_PERICENTER":68.3381,"MEAN_ANOMALY":291.7734,"EPHEMERIS_TYPE":0,"CLASSIFICATION_TYPE":"U","NORAD_CAT_ID":65478,"ELEMENT_SET_NO":999,"REV_AT_EPOCH":2999,"BSTAR":0.00095478857,"MEAN_MOTION_DOT":0.00027981,"MEAN_MOTION_DDOT":0}]
